INTELSAT 35E (IS-35E)   
1 42818U 17041A   26165.18285993  .00000000  00000+0  00000+0 0  9999
2 42818   0.0255   6.1220 0001549  74.2291 213.4753  1.00268394 32780
COSMOS 2520             
1 42907U 17046A   26164.48562115  .00000148  00000+0  00000+0 0  9992
2 42907   0.0477  86.2734 0001057  51.5599 343.7966  1.00272902 32364
TDRS 13                 
1 42915U 17047A   26165.18736662 -.00000094  00000+0  00000+0 0  9991
2 42915   3.4509   2.6582 0014421 106.2849 209.5633  1.00271405 32316
QZS-3 (MICHIBIKI-3)     
1 42917U 17048A   26164.98433720  .00000000  00000+0  00000+0 0  9996
2 42917   0.0254 163.4287 0002429 288.4220 291.7540  1.00264504 32229
AMAZONAS 5              
1 42934U 17053A   26164.53598677 -.00000271  00000+0  00000+0 0  9996
2 42934   0.0341 321.6774 0002191  65.3656   6.7678  1.00270603 32004
ASIASAT 9               
1 42942U 17057A   26164.85322399  .00000000  00000+0  00000+0 0  9999
2 42942   0.0410  45.6399 0002498  28.1238 257.7082  1.00263846 31826
INTELSAT 37E (IS-37E)   
1 42950U 17059A   26165.11484977 -.00000131  00000+0  00000+0 0  9997
2 42950   0.0200  61.2578 0002341  39.6516 184.8699  1.00272612 32037
BSAT-4A                 
1 42951U 17059B   26164.99754704 -.00000341  00000+0  00000+0 0  9994
2 42951   0.0429  25.4816 0003888  41.7892 303.9783  1.00269713 31761
QZS-4 (MICHIBIKI-4)     
1 42965U 17062A   26164.35984206 -.00000329  00000+0  00000+0 0  9991
2 42965  40.1102 343.5314 0745256 271.6868 273.2941  1.00251407 31761
SES-11 (ECHOSTAR 105)   
1 42967U 17063A   26165.16890903 -.00000080  00000+0  00000+0 0  9998
2 42967   0.0206 322.8126 0002732 105.1150 150.4107  1.00270599 31699
KOREASAT 5A             
1 42984U 17067A   26165.06950126 -.00000349  00000+0  00000+0 0  9992
2 42984   0.0118 353.1656 0000552  95.2655 312.1149  1.00272309 31494
ALCOMSAT 1              
1 43039U 17078A   26164.68570346 -.00000175  00000+0  00000+0 0  9992
2 43039   0.0476  77.2749 0002120   0.4590  46.3322  1.00271259 31266
SBIRS GEO-3 (USA 282)   
1 43162U 18009A   26165.17266814  .00000135  00000+0  00000+0 0  9996
2 43162   2.1820  11.9533 0001808  64.9724  88.3135  1.00271656 30810
AL YAH 3                
1 43174U 18012A   26165.18554661 -.00000148  00000+0  00000+0 0  9999
2 43174   1.5440  83.1427 0003865 359.1628 226.8747  1.00270143 30812
SES-14                  
1 43175U 18012B   26164.82381806 -.00000268  00000+0  00000+0 0  9992
2 43175   0.0174  21.2355 0000810  63.3215  66.6505  1.00270995  6996
GOES 17                 
1 43226U 18022A   26165.17194236 -.00000174  00000+0  00000+0 0  9994
2 43226   0.9295  85.7633 0000409  32.5899 116.5253  1.00270168 30398
HISPASAT 30W-6          
1 43228U 18023A   26164.75594863 -.00000206  00000+0  00000+0 0  9996
2 43228   0.0433  39.6548 0005730  29.1729  75.3825  1.00271486 30373
SUPERBIRD-B3            
1 43271U 18033A   26165.15046104 -.00000083  00000+0  00000+0 0  9993
2 43271   0.0149 353.0036 0000815  90.8342  34.7890  1.00273873 30031
HYLAS 4                 
1 43272U 18033B   26164.75525530 -.00000223  00000+0  00000+0 0  9990
2 43272   0.0147  30.1917 0000858  50.5126  59.7627  1.00269963 30031
IRNSS-1I                
1 43286U 18035A   26164.84387999  .00000068  00000+0  00000+0 0  9998
2 43286  28.7469  74.2484 0017907 181.4936   5.0540  1.00271450 30047
USA 283                 
1 43339U 18036A   26163.71911426  .00000000  00000+0  00000+0 0  9997
2 43339   0.0199 335.2360 0000436 187.5113 131.2828  1.00273175 25248
COSMOS 2526             
1 43432U 18037A   26165.00118705 -.00000335  00000+0  00000+0 0  9997
2 43432   0.0250  38.3151 0000646 148.9680 203.5230  1.00269012 29926
APSTAR-6C               
1 43450U 18041A   26165.21622677 -.00000309  00000+0  00000+0 0  9994
2 43450   0.0233 356.5399 0001028 344.2726 133.5621  1.00270125 29780
BANGABANDHUSAT-1        
1 43463U 18044A   26165.08169912 -.00000353  00000+0  00000+0 0  9993
2 43463   0.0150  37.2870 0001609  41.8046 331.8104  1.00271374 29673
SES-12                  
1 43488U 18049A   26165.10947455 -.00000260  00000+0  00000+0 0  9991
2 43488   0.0177  23.2775 0001082 281.1251  92.4301  1.00269475 29386
FENGYUN 2H              
1 43491U 18050A   26165.06282791 -.00000123  00000+0  00000+0 0  9995
2 43491   3.0218  79.1129 0001956 135.1361 150.1623  1.00269897 29402
BEIDOU-2 IGSO-7         
1 43539U 18057A   26164.92597233  .00000007  00000+0  00000+0 0  9999
2 43539  55.1941 163.0866 0104942 237.9534 304.7524  1.00251960 29093
TELSTAR 19V             
1 43562U 18059A   26164.74936194 -.00000269  00000+0  00000+0 0  9991
2 43562   0.0197 160.5434 0002282 303.5237   4.7595  1.00269537 29115
TELKOM 4 (MERAH PUTIH)  
1 43587U 18064A   26165.06846125 -.00000335  00000+0  00000+0 0  9998
2 43587   0.0148  47.7115 0001219  65.5262 281.7822  1.00270759 28849
TELSTAR 18V             
1 43611U 18069A   26164.84767183 -.00000284  00000+0  00000+0 0  9995
2 43611   0.0151 321.5762 0001575 118.1952 265.5383  1.00269235 28601
AZERSPACE 2 (IS-38)     
1 43632U 18074A   26164.88888679  .00000146  00000+0  00000+0 0  9998
2 43632   0.0111   7.5192 0001265  90.2404 169.5525  1.00271406 28419
HORIZONS-3E             
1 43633U 18074B   26164.79535486 -.00000020  00000+0  00000+0 0  9996
2 43633   0.0185 161.8508 0000895 113.8020  81.7793  1.00272721 28301
