OBJECT_NAME,OBJECT_ID,EPOCH,MEAN_MOTION,ECCENTRICITY,INCLINATION,RA_OF_ASC_NODE,ARG_OF_PERICENTER,MEAN_ANOMALY,EPHEMERIS_TYPE,CLASSIFICATION_TYPE,NORAD_CAT_ID,ELEMENT_SET_NO,REV_AT_EPOCH,BSTAR,MEAN_MOTION_DOT,MEAN_MOTION_DDOT
INTELSAT 35E (IS-35E),2017-041A,2026-06-14T04:23:19.097952,1.00268394,.0001549,0.0255,6.1220,74.2291,213.4753,0,U,42818,999,3278,0,0,0
COSMOS 2520,2017-046A,2026-06-13T11:39:17.667360,1.00272902,.00010579,0.0477,86.2734,51.5599,343.7966,0,U,42907,999,3236,0,.148E-5,0
TDRS 13,2017-047A,2026-06-14T04:29:48.475968,1.00271405,.0014421,3.4509,2.6582,106.2849,209.5633,0,U,42915,999,3231,0,-.94E-6,0
QZS-3 (MICHIBIKI-3),2017-048A,2026-06-13T23:37:26.734080,1.00264504,.0002429,0.0254,163.4287,288.4220,291.7540,0,U,42917,999,3222,0,0,0
AMAZONAS 5,2017-053A,2026-06-13T12:51:49.256928,1.00270603,.0002191,0.0341,321.6774,65.3656,6.7678,0,U,42934,999,3200,0,-.271E-5,0
ASIASAT 9,2017-057A,2026-06-13T20:28:38.552736,1.00263846,.00024985,0.0410,45.6399,28.1238,257.7082,0,U,42942,999,3182,0,0,0
INTELSAT 37E (IS-37E),2017-059A,2026-06-14T02:45:23.020128,1.00272612,.0002341,0.0200,61.2578,39.6516,184.8699,0,U,42950,999,3203,0,-.131E-5,0
BSAT-4A,2017-059B,2026-06-13T23:56:28.064256,1.00269713,.0003888,0.0429,25.4816,41.7892,303.9783,0,U,42951,999,3176,0,-.341E-5,0
QZS-4 (MICHIBIKI-4),2017-062A,2026-06-13T08:38:10.353984,1.00251407,.07452562,40.1102,343.5314,271.6868,273.2941,0,U,42965,999,3176,0,-.329E-5,0
SES-11 (ECHOSTAR 105),2017-063A,2026-06-14T04:03:13.740192,1.00270599,.0002732,0.0206,322.8126,105.1150,150.4107,0,U,42967,999,3169,0,-.8E-6,0
KOREASAT 5A,2017-067A,2026-06-14T01:40:04.908864,1.00272309,.0000552,0.0118,353.1656,95.2655,312.1149,0,U,42984,999,3149,0,-.349E-5,0
ALCOMSAT 1,2017-078A,2026-06-13T16:27:24.778944,1.00271259,.00021204,0.0476,77.2749,0.4590,46.3322,0,U,43039,999,3126,0,-.175E-5,0
SBIRS GEO-3 (USA 282),2018-009A,2026-06-14T04:08:38.527296,1.00271656,.0001808,2.1820,11.9533,64.9724,88.3135,0,U,43162,999,3081,0,.135E-5,0
AL YAH 3,2018-012A,2026-06-14T04:27:11.227104,1.00270143,.0003865,1.5440,83.1427,359.1628,226.8747,0,U,43174,999,3081,0,-.148E-5,0
SES-14,2018-012B,2026-06-13T19:46:17.880384,1.00270995,.00008104,0.0174,21.2355,63.3215,66.6505,0,U,43175,999,699,0,-.268E-5,0
GOES 17,2018-022A,2026-06-14T04:07:35.819904,1.00270168,.0000409,0.9295,85.7633,32.5899,116.5253,0,U,43226,999,3039,0,-.174E-5,0
HISPASAT 30W-6,2018-023A,2026-06-13T18:08:33.961632,1.00271486,.00057308,0.0433,39.6548,29.1729,75.3825,0,U,43228,999,3037,0,-.206E-5,0
SUPERBIRD-B3,2018-033A,2026-06-14T03:36:39.833856,1.00273873,.0000815,0.0149,353.0036,90.8342,34.7890,0,U,43271,999,3003,0,-.83E-6,0
HYLAS 4,2018-033B,2026-06-13T18:07:34.057920,1.00269963,.00008583,0.0147,30.1917,50.5126,59.7627,0,U,43272,999,3003,0,-.223E-5,0
IRNSS-1I,2018-035A,2026-06-13T20:15:11.231136,1.00271450,.00179079,28.7469,74.2484,181.4936,5.0540,0,U,43286,999,3004,0,.68E-6,0
USA 283,2018-036A,2026-06-12T17:15:31.472064,1.00273175,.0000436,0.0199,335.2360,187.5113,131.2828,0,U,43339,999,2524,0,0,0
COSMOS 2526,2018-037A,2026-06-14T00:01:42.561120,1.00269012,.0000646,0.0250,38.3151,148.9680,203.5230,0,U,43432,999,2992,0,-.335E-5,0
APSTAR-6C,2018-041A,2026-06-14T05:11:21.992928,1.00270125,.0001028,0.0233,356.5399,344.2726,133.5621,0,U,43450,999,2978,0,-.309E-5,0
BANGABANDHUSAT-1,2018-044A,2026-06-14T01:57:38.803968,1.00271374,.0001609,0.0150,37.2870,41.8046,331.8104,0,U,43463,999,2967,0,-.353E-5,0
SES-12,2018-049A,2026-06-14T02:37:38.601120,1.00269475,.0001082,0.0177,23.2775,281.1251,92.4301,0,U,43488,999,2938,0,-.26E-5,0
FENGYUN 2H,2018-050A,2026-06-14T01:30:28.331424,1.00269897,.0001956,3.0218,79.1129,135.1361,150.1623,0,U,43491,999,2940,0,-.123E-5,0
BEIDOU-2 IGSO-7,2018-057A,2026-06-13T22:13:24.009312,1.00251960,.0104942,55.1941,163.0866,237.9534,304.7524,0,U,43539,999,2909,0,.7E-7,0
TELSTAR 19V,2018-059A,2026-06-13T17:59:04.871616,1.00269537,.00022825,0.0197,160.5434,303.5237,4.7595,0,U,43562,999,2911,0,-.269E-5,0
TELKOM 4 (MERAH PUTIH),2018-064A,2026-06-14T01:38:35.052000,1.00270759,.0001219,0.0148,47.7115,65.5262,281.7822,0,U,43587,999,2884,0,-.335E-5,0
TELSTAR 18V,2018-069A,2026-06-13T20:20:38.846112,1.00269235,.00015758,0.0151,321.5762,118.1952,265.5383,0,U,43611,999,2860,0,-.284E-5,0
AZERSPACE 2 (IS-38),2018-074A,2026-06-13T21:19:59.818656,1.00271406,.00012659,0.0111,7.5192,90.2404,169.5525,0,U,43632,999,2841,0,.146E-5,0
HORIZONS-3E,2018-074B,2026-06-13T19:05:18.659904,1.00272721,.00008959,0.0185,161.8508,113.8020,81.7793,0,U,43633,999,2830,0,-.2E-6,0
